id,title,phone_number,email_add,zip_code,zip,latitude,longitude,city,state,country
25578285,Nazca Quick Lube,(575) 605-8839,nazcaquicklube@gmail.com,88201,88201,33.6397,-104.3748,Roswell,NM,US
25578287,Caring House Cleaning Services,(415) 941-9105,jeffersonbrag@gmail.com,94103,94103,37.7725,-122.4147,San Francisco,CA,US
25578289,Dee's Salon Suites,(404) 694-1553,deesalonsuites@gmail.com,30291,30291,33.5832,-84.5499,Union City,GA,US
25578291,Ups,(727) 550-7852,mj3465944@gmail.com,33774,33774,27.8839,-82.8265,Largo,FL,US
25578293,ROYAL HANDYMAN LLC,(678) 887-4821,efraincesilio@royalhandymanllc.net,30268,30268,33.5242,-84.679,Palmetto,GA,US
25578295,T&Z Customs,(210) 630-8099,kenneth.spencer24@gmail.com,78258,78258,29.6562,-98.4967,San Antonio,TX,US
25578297,Meier Corp ,(248) 692-3869,Kylemeier05@gmail.com,48348,48348,42.7605,-83.404,Clarkston,MI,US
25578299,Cristal s cleaning,(334) 672-5557,Halfordcristal9@gmail.com,36079,36079,31.7595,-86.0107,Troy,AL,US
25578301,Beths Best Cleaning service ,(478) 696-2767,Beth.starlet98@gmail.com,30076,30076,34.0213,-84.3104,Roswell,GA,US
25578303,Dukes Cleaning Service,(888) 705-6650,Wcornish@dukescleaningservices.com,19152,19152,40.0606,-75.0471,Philadelphia,PA,US
25578305,Berkshire Hathaway CNY Realty,(315) 278-8781,frutherford429@gmail.com,13066,13066,43.0268,-76.0145,Fayetteville,NY,US
25578307,Precision Power Washing,(580) 747-9978,dany_ozc@yahoo.com,73701,73701,36.4028,-97.8623,Enid,OK,US
25578309,Duke's Cleaning Service,(888) 705-6650,Wcornish@dukescleaningservices.com,19149,19149,40.0369,-75.0664,Philadelphia,PA,US
25578311,Patino handyman ,(703) 554-9697,Districelbogota@hotmail.com,20176,20176,39.1821,-77.5359,Leesburg,VA,US
25578313,Handyman ,(832) 549-4932,jimmyroausa@hotmail.com,77494,77494,29.7404,-95.8304,Katy,TX,US
25578315,Handyman ,(240) 603-1158,damiantsalazar86@gmail.com,20737,20737,38.9601,-76.9147,Riverdale,MD,US
25578317,Handymen services,(571) 330-7425,gitano668@gmail.com,22044,22044,38.8589,-77.1548,Falls Church,VA,US
25578319,Montiel Carpet Cleaning ,(804) 332-7687,awesomedre2001@gmail.com,23228,23228,37.4638,-77.398,Henrico,VA,US
25578321,"DanAir HVAC, INC",(239) 225-3347,alexdanair@gmail.com,33904,33904,26.6065,-81.9502,Cape Coral,FL,US
25578323,Borges Building Management,(773) 441-9902,Frankrod74@gmail.com,60625,60625,41.9703,-87.7042,Chicago,IL,US
25578325,Roofing,(828) 490-8747,arnoldalbertomz@gmail.com,28739,28739,35.3192,-82.5,Hendersonville,NC,US
25578327,handymen services,(571) 330-7425,gitano668@gmail.com,22044,22044,38.8589,-77.1548,Falls Church,VA,US
25578329,LIONSTONE,(770) 866-6133,Roxylaunica83@icloud.com,30043,30043,34.0031,-84.0126,Lawrenceville,GA,US
25578331,Jones drywall,(910) 725-3691,ondaclok@gmail.com,28360,28360,34.6697,-79.1084,Lumberton,NC,US
25578333,Aksarben Carpentry Services LLC,(402) 215-1391,No Email Found,68134,68134,41.2949,-96.0546,Omaha,NE,US
25578335,Pitons International Realty,(813) 815-1613,brandongreen@pitonsrealestate.com,33579,33579,27.8024,-82.2755,Riverview,FL,US
25578337,Cg Construction,(914) 602-5457,Cgconstruction914@aol.com,10537,10537,41.3374,-73.8838,Lake Peekskill,NY,US
25578339,Famitor Painting LLC.,(504) 908-0446,wilmer_toro@ymail.com,70006,70006,30.0129,-90.1915,Metairie,LA,US
25578341,Cox landscaping and maintenance,(912) 548-3600,Robertjcox1226@gmail.com,31503,31503,31.2137,-82.3557,Waycross,GA,US
25578343,Plumber Hub,(626) 626-9363,rick.mendoza@yahoo.com,91763,91763,34.0733,-117.6987,Montclair,CA,US
25578345,easy roofing solutions,(714) 488-0636,infoeasyroofing@gmail.com,92801,92801,33.8428,-117.9546,Anaheim,CA,US
25578347,Barrios services llc ,(240) 707-2416,yeison@barriosservices.com,20785,20785,38.9223,-76.8755,Hyattsville,MD,US
25578349,Trail Landscaping,(864) 308-7285,granttrail85@gmail.com,29384,29384,34.3367,-82.088,Waterloo,SC,US
25578351,R&t landscaping ,(276) 870-1717,Tylerbishop1120@gmail.com,37857,37857,36.4162,-83.0108,Rogersville,TN,US
25578353,Northern repair ,(509) 316-1951,Service@northernrepair.com,99301,99301,46.2492,-119.1044,Pasco,WA,US
25578355,Junior's Handyman Service,(757) 268-4166,Wadelando82@gmail.com,23608,23608,37.1526,-76.542,Newport News,VA,US
25578357,Trail Landscaping/ Handyman Services,(864) 308-7285,granttrail85@gmail.com,29374,29374,34.7855,-81.8492,Pauline,SC,US
25578359,Neatpicky Organizational Professionals,(928) 460-5700,shaddosamora@gmail.com,86301,86301,34.5917,-112.4265,Prescott,AZ,US
25578361,Tamed Cutz Llc.,(228) 383-4147,Dderamus72@gmail.com,39503,39503,30.4601,-89.0886,Gulfport,MS,US
25578363,Patterson Relocation & Courier Service,(407) 988-7427,pattersonfrc@gmail.com,32811,32811,28.5163,-81.4516,Orlando,FL,US
25578365,Numbskull Craftsman,(262) 995-3377,numbskullcraftsman@gmail.com,54703,54703,44.8346,-91.5159,Eau Claire,WI,US
25578367,Topdoghandyman,(706) 360-6815,georgethaxton71@gmail.com,30813,30813,33.4504,-82.1982,Grovetown,GA,US
25578369,Southern Hospitality,(205) 566-6329,wesnov@gmail.com,80503,80503,40.1559,-105.1624,Longmont,CO,US
25578371,Mac Fab and Welding ,(402) 659-7560,Mcdaniel0919@gmail.com,90262,90262,33.9241,-118.2013,Lynwood,CA,US
25578373,Lees On-site Landscaping ,(219) 955-3193,miranlee31@gmail.com,46410,46410,41.4957,-87.3509,Merrillville,IN,US
25578375,ET Home Repairs,(470) 282-5976,ethomerepairs@gmail.com,30328,30328,33.9335,-84.3958,Atlanta,GA,US
25578377,356 north broad ,(570) 888-3212,Julissa.agosto@aol.com,18704,18704,41.2742,-75.8903,Kingston,PA,US
25578379,Patriot Plus,(603) 321-9982,mr.ericdurant@gmail.com,3079
25578381,Oldfield Laundry Systems,(909) 248-3050,service@oldfieldlaundry.com,92336,92336,34.1173,-117.4378,Fontana,CA,US
25578383,Blands Handyman Services,(913) 594-2301,Blandservices@yahoo.com,66075,66075,38.1823,-94.7057,Pleasanton,KS,US
25578385,Garcia's five Star appliance and we're going to need another number,(513) 909-6646,garciarepair06@gmail.com,32578,32578,30.5169,-86.4822,Niceville,FL,US
25578387,Move-U,(602) 726-1871,Chrismarr@move-university.com,85022,85022,33.6315,-112.052,Phoenix,AZ,US
25578389,cosyjewlery,(612) 516-5618,anthonywalton8833@gmail.com,10025,10025,40.7975,-73.9683,New York,NY,US
25578391,Prolific Painting,(321) 603-8942,prolificpainting01@gmail.com,30291,30291,33.5832,-84.5499,Union City,GA,US
25578393,manatee county irrigation ,(941) 615-7853,prescobar40@gmail.com,34205,34205,27.4841,-82.5834,Bradenton,FL,US
25578395,Drumheller Renovations,(570) 579-6419,Mustang_18241@yahoo.com,17985,17985,40.9141,-76.1931,Zion Grove,PA,US
25578397,Clemson pc,(864) 777-0070,Donnieharden@clemsonpc.com,29625,29625,34.5271,-82.7087,Anderson,SC,US
25578399,Aurealia Investment LLC,(845) 288-1922,carleenjones38@gmail.com,10451,10451,40.8222,-73.9217,Bronx,NY,US
25578401,Preferred Painting,(915) 255-4327,manny@preferred-painting.com,79935,79935,31.7718,-106.3303,El Paso,TX,US
25578403,Mani Water NYC,(929) 235-4293,maniwaternyc@gmail.com,10009,10009,40.7262,-73.9796,New York,NY,US
25578405,Express Damage Restoration Of Ky ,(859) 302-2702,Hippyjester4@gmail.com,40475,40475,37.7546,-84.2955,Richmond,KY,US
25578407,Inspiration Dental,(813) 638-0313,inspirationdental4@gmail.com,33579,33579,27.8024,-82.2755,Riverview,FL,US
25578409,Northern storm restoration ,(907) 232-3835,Zmaxson94@gmail.com,99654,99654,61.5923,-149.3959,Wasilla,AK,US
25578411,At Your Service,(615) 240-9007,treyiknowucme@gmail.com,37167,37167,35.9656,-86.5048,Smyrna,TN,US
25578413,Pollock Precision,(225) 620-4713,pollockpercision@gmail.com,70808,70808,30.4066,-91.1468,Baton Rouge,LA,US
25578415,CJS Systems LLC ,(443) 615-5301,cjssystemsllc@gmail.com,21230,21230,39.2645,-76.6224,Baltimore,MD,US
25578417,Joy shine cleaning,(206) 537-6859,joyshinecleaning@gmail.com,98012,98012,47.8401,-122.1972,Bothell,WA,US
25578419,Complete Appliance Repair,(714) 464-7474,askcapservices@gmail.com,92602,92602,33.7419,-117.7467,Irvine,CA,US
25578421,First Time Investment Solutions,(202) 519-4361,sellyourhousedc@gmail.com,20007,20007,38.9144,-77.074,Washington,DC,US
25578423,Better Blocks,(908) 337-9337,izundu@betterblocks.net,7747
25578425,Trending Style Houston,(713) 898-8522,trendingstyle713@gmail.com,77056,77056,29.7446,-95.4683,Houston,TX,US
25578427,Cleaning Up Dust,(517) 294-5337,danielle.hoban89@gmail.com,48843,48843,42.6159,-83.9248,Howell,MI,US
25578429,A's home services,(562) 708-8736,alexyolgatorres@yahoo.com,93313,93313,35.2974,-119.0509,Bakersfield,CA,US
25578431,K&S Concrete,(360) 723-3084,kandsconcrete79@gmail.com,98682,98682,45.6644,-122.5212,Vancouver,WA,US
25578433,The Boulevard Dispensary,(619) 844-5100,ziyadosachi@yahoo.com,91945,91945,32.7332,-117.0326,Lemon Grove,CA,US
25578435,Warren Graham Handyman services,(909) 353-9824,warrengraham309@gmail.com,92399,92399,34.0282,-117.0489,Yucaipa,CA,US
25578437,ErrazoGutters ,(720) 980-3663,jerrazo367@gmail.com,80123,80123,39.6206,-105.0901,Littleton,CO,US
25578439,Jays prosCCC ,(615) 995-1656,Jaylinjames615@gmail.com,37130,37130,35.8456,-86.3903,Murfreesboro,TN,US
25578441,Full Spectrum Organix,(323) 380-7817,fsorganix@gmail.com,90046,90046,34.1074,-118.3652,Los Angeles,CA,US
25578443,Beautiful Disasters L.L.C,(918) 907-5227,BeautifulDisasters918@gmail.com,74003,74003,36.744,-95.9921,Bartlesville,OK,US
25578445,ErrazoGutters,(720) 980-3663,jerrazo367@gmail.com,80138,80138,39.5102,-104.7216,Parker,CO,US
25578447,Tech Pros,(318) 550-5094,Techpros318@gmail.com,71111,71111,32.5449,-93.7038,Bossier City,LA,US
25578449,Outright Organized with Liliana Pulido,(669) 350-7411,Ororganized@gmail.com,95123,95123,37.2458,-121.8306,San Jose,CA,US
25578451,Clean Moore Services LLC,(614) 705-5510,Kelley.darion17@gmail.com,43213,43213,39.9727,-82.8329,Columbus,OH,US
25578453,Lee'$lawncare,(530) 648-7211,Waynelee065@gmail.com,95673,95673,38.6895,-121.4479,Rio Linda,CA,US
25578455,Dubb workshop,(773) 499-1438,rickloredo1994@gmail.com,60651,60651,41.9025,-87.7393,Chicago,IL,US
25578457,Dallaire Realty,(920) 569-0827,dallairerealtywi@outlook.com,54303,54303,44.5522,-88.0788,Green Bay,WI,US
25578459,Super maddy,(323) 629-6296,Mendezvalerie17@gmail.com,91311,91311,34.2583,-118.5914,Chatsworth,CA,US
25578461,JAX Concrete Contractors,(904) 204-1579,concretecontra@gmail.com,32254,32254,30.3415,-81.7358,Jacksonville,FL,US
25578463,Kazam construction ,(646) 229-3971,alimehar697@gmail.com,11204,11204,40.6179,-73.9856,Brooklyn,NY,US
25578465,JC MUNOZ COMPANY LLC,(401) 663-8892,Carlixto206@gmail.com,2895
25578467,Branded Works,(208) 320-4440,brandon@brandedworks.co,83616,83616,43.7069,-116.362,Eagle,ID,US
25578469,Gilbert Care Clean llc ,(414) 458-3722,Darnisha1985@gmail.com,53204,53204,43.0158,-87.9317,Milwaukee,WI,US
25578471,Bleitz Landworks Enterprise LLC,(206) 384-7724,jacobbleitz@yahoo.com,98166,98166,47.4511,-122.353,Seattle,WA,US
25578473,Four Corners Floor Covering,(865) 214-1113,robbysmith3881@gmail.com,37660,37660,36.5484,-82.5618,Kingsport,TN,US
25578475,3153130973,(315) 313-0873,Joshuamiller845@gmail.com,10992,10992,41.4237,-74.1601,Washingtonville,NY,US
25578477,Lee'$lawncare,(530) 648-7211,waynelee065@gmail.com,95673,95673,38.6895,-121.4479,Rio Linda,CA,US
25578479,Garage1day epoxy ,(253) 258-8086,Rodriguez-206@live.com,98003,98003,47.3203,-122.3117,Federal Way,WA,US
25578481,Gaiinz Congrete,(919) 725-5146,Demartea_parker@gmail.com,27707,27707,35.9631,-78.9315,Durham,NC,US
25578483,United Construction and Repair,(949) 973-6277,jovannyconsultant@gmail.com,92677,92677,33.5145,-117.7084,Laguna Niguel,CA,US
25578485,Dupont Jewelers,(318) 855-4695,dupontjewelers@aol.com,71201,71201,32.5286,-92.1061,Monroe,LA,US
25578487,Kai Pro Services,(808) 339-3319,info@kaiproservices.com,96813,96813,21.3179,-157.8521,Honolulu,HI,US
25578489,Kyler Hassey,(817) 343-9291,kylerblainehassey@gmail.com,76020,76020,32.9035,-97.5412,Azle,TX,US
25578491,Superfares.com,(585) 420-8168,info@superfares.com,14604,14604,43.1577,-77.608,Rochester,NY,US
25578493,Moey Inc Properties,(513) 203-0666,moeyproperties97@gmail.com,45223,45223,39.1696,-84.5478,Cincinnati,OH,US
25578495,Sims Weld Shop,(166) 158-3672,simsweld@gmail.com,93534,93534,34.6909,-118.1491,Lancaster,CA,US
25578497,Danny Brewer Painting ,(502) 341-7233,drbrewer1990@gmail.com,40213,40213,38.1839,-85.7106,Louisville,KY,US
25578499,Danny Brewer Painting,(502) 341-7233,drbrewer1990@gmail.com,40213,40213,38.1839,-85.7106,Louisville,KY,US
25578501,Archer Meducation,(988) 440-9504,archermeducationseo@gmail.com,60092,60092,42.28,-87.95,Libertyville,IL,US
25578503,Monroe GA Pressure Washing,(678) 635-9688,monroegapressurewashing@gmail.com,30656,30656,33.8386,-83.7104,Monroe,GA,US
25578505,Perfect Timing Services Inc,(336) 858-0099,perfecttimingservices@gmail.com,27317,27317,35.8488,-79.8018,Randleman,NC,US
25578507,Go brothers junk services ,(267) 574-6076,Dijolalan03@gmail.com,19124,19124,40.0178,-75.0895,Philadelphia,PA,US
25578509,Massy United Insurance,(246) 430-1900,markwest0818@gmail.com,97212,97212,45.5441,-122.6423,Portland,OR,US
25578511,PlayGround Games,(847) 373-6925,info@theplaygroundgames.com,60008,60008,42.073,-88.0191,Rolling Meadows,IL,US
25578513,Crimson Construction,(318) 510-3702,skyman9239@gmail.com,71023,71023,32.49,-93.3996,Doyline,LA,US
25578515, Veronica's janitorial services,(404) 921-4331,Vrjanitorial786@gmail.com,30083,30083,33.7942,-84.2018,Stone Mountain,GA,US
25578517,Avantel Plumbing of Lawrence KS,(785) 330-5046,sauerdarby257@gmail.com,66044,66044,39.0289,-95.2086,Lawrence,KS,US
25578519,"SUPERIOR TINT & WRAPS,LLC",(561) 692-5893,superiortintandwraps561@gmail.com,33444,33444,26.4564,-80.0793,Delray Beach,FL,US
25578521,Life long renovations,(256) 610-7313,brandotia@gmail.com,36278,36278,33.3019,-85.4737,Wedowee,AL,US
25578523,R.M.V. Plumbing,(207) 502-0232,robbiev112@gmail.com,4240
25578525,Clarke works ,(401) 332-5016,Clarkeworks@gmail.com,2903
25578527,Shake it up lawncare,(812) 512-0095,waynenicole0875@gmail.com,47438,47438,39.1723,-87.2023,Jasonville,IN,US
25578529,Custom Carpentry & Design,(804) 363-5125,Dodge111576@gmail.com,23664,23664,37.0566,-76.2966,Hampton,VA,US
25578531,Gravina Painting,(508) 561-5325,Paulrgravina@gmail.com,1524
25578533,Sybil Mobile Notary ,(913) 232-1377,Sybil@smobilenotary.com,66210,66210,38.9273,-94.7143,Overland Park,KS,US
25578535,ALLSmith's Construction & Handyman Service,(606) 336-4031,ty13r.5mith90@gmail.com,40360,40360,38.1532,-83.7564,Owingsville,KY,US
25578537,Square Grove Epoxy Flooring,(415) 619-6631,epoxysanfrancisco@gmail.com,94117,94117,37.7712,-122.4413,San Francisco,CA,US
25578539,Pedro's Remodeling & Paint,(972) 299-0155,admin@pedrosremodelingpaint.com,75067,75067,33.0198,-96.9925,Lewisville,TX,US
25578541,Full Send Moving,(540) 819-8058,fullsendmoving540@gmail.com,24011,24011,37.269,-79.942,Roanoke,VA,US
25578543,rooTdreaMs,(520) 907-7274,therootdreamsmovement@gmail.com,85705,85705,32.2691,-110.9845,Tucson,AZ,US
25578545,Krazy n Krafty,(734) 564-0166,Krazynkrafty@gmail.com,48390,48390,42.5582,-83.4773,Walled Lake,MI,US
25578547,Delgado fixes,(219) 895-1381,Ajdelgado979@gmail.com,46323,46323,41.5878,-87.4532,Hammond,IN,US
25578549,MCR Carpet & Upholstery,(401) 297-6753,mcrcarpet1@gmail.com,2878
25578551,Marathon Cleaners,(727) 423-3506,Marathoncleaners19@gmail.com,21921,21921,39.6264,-75.8458,Elkton,MD,US
25578553,ALLEGHENY DESIGNS,(412) 926-0966,DAVIDWFLANNERY@GMAIL.COM,15221,15221,40.4346,-79.8655,Pittsburgh,PA,US
25578555,Enhance Credit,(844) 733-7453,enhancecredit65@gmail.com,7940
25578557,Wood 2 laminate,(502) 851-0198,mulrain13@gmail.com,40210,40210,38.2306,-85.7905,Louisville,KY,US
25578559,Tree Removal Chesterfield VA,(804) 597-3869,jerrodgent097@gmail.com,23832,23832,37.3923,-77.5668,Chesterfield,VA,US
25578561,ZAZ Landscaping Services,(810) 420-8693,zazlandscapingser.02@gmail.com,48430,48430,42.7851,-83.7294,Fenton,MI,US
25578563,MTM Lawn Care,(937) 856-4658,malachimalik22@gmail.com,45385,45385,39.6842,-83.9369,Xenia,OH,US
25578565,Bristol's Window Cleaning,(616) 788-1393,jaredbristol858@gmail.com,48838,48838,43.1793,-85.2497,Greenville,MI,US
25578567,Oak Wolf Handy Services ,(325) 500-8718,C.darragh@outlook.com,79416,79416,33.5924,-101.9367,Lubbock,TX,US
25578569,Donlayta,(937) 250-3356,na@na.na,47374,47374,39.8324,-84.8936,Richmond,IN,US
25578571,Shine City Mobile Auto Glass,(949) 613-3083,shinecitymobileautoglass@gmail.com,92630,92630,33.6437,-117.6868,Lake Forest,CA,US
25578573,myTutorHub,(408) 689-7272,info@mytutorhub.com,95014,95014,37.318,-122.0449,Cupertino,CA,US
25578575,"Taylor Made cleaning, LLC",(412) 517-6849,Turnerkimberly205@gmail.com,15218,15218,40.4237,-79.89,Pittsburgh,PA,US
25578577,The Driveway Doctor,(985) 200-2168,"",1730
25578579,City 24/7 locksmith,(540) 429-0846,asadzoda@gmail.com,22401,22401,38.2995,-77.4772,Fredericksburg,VA,US
25578581,Heferles Landscaping ,(716) 705-1522,Heferleslanscaping@gmail.com,14219,14219,42.7863,-78.8264,Buffalo,NY,US
25578583,Smile Sky Family Dental,(678) 722-5212,smileskyfamilydental20@gmail.com,30071,30071,33.9381,-84.1972,Norcross,GA,US
25578585,Bdc installation,(540) 761-1204,noemail1234@gmail.com,20015,20015,38.9658,-77.068,Washington,DC,US
25578587,Cutting Edge Lawncare,(810) 813-2983,stevendolliver@gmail.com,48458,48458,43.116,-83.6895,Mount Morris,MI,US
25578589,Northpoint Washington,(999) 867-5309,NPwashington@northpointrecovery.com,98026,98026,47.8353,-122.327,Edmonds,WA,US
25578591,Nice Clean Home,(724) 998-8050,michelle93dorance@yahoo.com,15301,15301,40.1717,-80.256,Washington,PA,US
25578593,Edwards Tree Service,(440) 787-3288,jkopops97@icloud.com,44001,44001,41.3617,-82.2538,Amherst,OH,US
25578595,Sivar pro painting LLC,(919) 519-9324,sivarpro.painting@outlook.com,27703,27703,35.9781,-78.8439,Durham,NC,US
25578597,B&M Remodeling ,(815) 842-7405,dpriceracing2@outlook.com,61739,61739,40.745,-88.5165,Fairbury,IL,US
25578599,JME Fab LLC,(724) 480-8872,amnhoward14@gmail.com,16101,16101,40.9922,-80.3284,New Castle,PA,US
25578601,Tree Removal Cleveland OH,(216) 284-5662,lesterglaspie338@gmail.com,44102,44102,41.4735,-81.7398,Cleveland,OH,US
25578603,Mr. GetitDon,(334) 276-9220,Megamoney42@gmail.com,36863,36863,32.8616,-85.2161,Lanett,AL,US
25578605,Alija Landscaping ,(347) 609-3525,BellaSkyBeauty@gmail.com,8724
25578607,Clear Vision window cleaning LLC,(651) 707-2504,coreysnavely@gmail.com,55129,55129,44.8985,-92.923,Saint Paul,MN,US
25578609,Jayz Cleaning,(248) 600-3391,willims.soldier@icloud.com,48342,48342,42.6439,-83.2792,Pontiac,MI,US
25578611,Cash For Cars,(414) 326-8023,Valdezg31@yahoo.com,53209,53209,43.1188,-87.9478,Milwaukee,WI,US
25578613,Devin landscapes ,(256) 438-0053,devincrook23@icloud.com,35903,35903,33.9845,-85.9077,Gadsden,AL,US
25578615,Hole in the wall home inspection,(830) 832-3446,holeinthewall52@yahoo.com,78217,78217,29.5395,-98.4194,San Antonio,TX,US
25578617,GetTheScrap,(954) 676-6626,jamalriley55@yahoo.com,33313,33313,26.1487,-80.2075,Fort Lauderdale,FL,US
25578619,K2 Roofing,(802) 318-8389,No Email Found,5482
25578621,Affordable lawn mowing,(734) 915-9076,Fake@gmail.com,48158,48158,42.1555,-84.0332,Manchester,MI,US
25578623,Tonys Repairs,(636) 345-6364,tony@rmlsn.net,63304,63304,38.7378,-90.6234,Saint Charles,MO,US
25578625,Devine Clippings ,(717) 941-3702,antuannela@gmail.com,17110,17110,40.303,-76.8862,Harrisburg,PA,US
25578627,D&h lawns care and pressure washing,(863) 268-8539,loreenahicks2@gmail.com,33881,33881,28.0452,-81.7325,Winter Haven,FL,US
25578629,Gotcha Covered of North Hills,(724) 303-7296,jkish@gotchacovered.com,15237,15237,40.5488,-80.0474,Pittsburgh,PA,US
